NORAD_CAT_ID,OBJECT_NAME,OBJECT_TYPE,EPOCH,MEAN_MOTION,ECCENTRICITY,INCLINATION,RA_OF_ASC_NODE,ARG_OF_PERICENTER,MEAN_ANOMALY,BSTAR,MEAN_MOTION_DOT,MEAN_MOTION_DDOT,TLE_LINE0,TLE_LINE1,TLE_LINE2,SEMIMAJOR_AXIS,PERIOD,APOGEE,PERIGEE,DECAYED
51871.0,STARLINK-3567,PAYLOAD,2023-12-14 11:17:29,15.08837904,0.0001516,53.2187,73.2738,98.7809,261.3355,1.0011e-06,-2.72e-06,0.0,0 STARLINK-3567,1 51871U 22022V   23348.47048155 -.00000272  00000-0  10011-5 0  9994,2 51871  53.2187  73.2738 0001516  98.7809 261.3355 15.08837904 99934,6917.887,95.438,540.801,538.703,0.0
51871.0,STARLINK-3567,PAYLOAD,2023-12-15 11:08:16,15.08836932,0.0001501,53.2183,68.8129,95.6592,264.4572,1.5446e-05,-4.2e-07,0.0,0 STARLINK-3567,1 51871U 22022V   23349.46408355 -.00000042  00000-0  15446-4 0  9997,2 51871  53.2183  68.8129 0001501  95.6592 264.4572 15.08836932100155,6917.89,95.438,540.793,538.716,0.0
51871.0,STARLINK-3567,PAYLOAD,2023-12-16 10:59:04,15.08835134,0.0001493,53.2176,64.3468,94.5172,265.5991,4.3285e-05,4.01e-06,0.0,0 STARLINK-3567,1 51871U 22022V   23350.45768672  .00000401  00000-0  43285-4 0  9999,2 51871  53.2176  64.3468 0001493  94.5172 265.5991 15.08835134100235,6917.895,95.438,540.793,538.727,0.0
51871.0,STARLINK-3567,PAYLOAD,2023-12-16 12:34:27,15.0883777,0.0001449,53.2175,64.0514,79.8678,280.2477,6.2345e-05,7.04e-06,0.0,0 STARLINK-3567,1 51871U 22022V   23350.52392572  .00000704  00000-0  62345-4 0  9993,2 51871  53.2175  64.0514 0001449  79.8678 280.2477 15.08837770100311,6917.887,95.438,540.755,538.75,0.0
51871.0,STARLINK-3567,PAYLOAD,2023-12-17 12:25:14,15.08818187,0.0001751,53.2182,59.5967,75.5673,284.5514,0.00031331,4.699e-05,0.0,0 STARLINK-3567,1 51871U 22022V   23351.51753372  .00004699  00000-0  31331-3 0  9999,2 51871  53.2182  59.5967 0001751  75.5673 284.5514 15.08818187100392,6917.947,95.439,541.023,538.601,0.0
51871.0,STARLINK-3567,PAYLOAD,2023-12-17 23:32:55,15.08847511,0.000154,53.2176,57.5125,81.5829,278.5338,0.0001265,1.726e-05,0.0,0 STARLINK-3567,1 51871U 22022V   23351.98120148  .00001726  00000-0  12650-3 0  9990,2 51871  53.2176  57.5125 0001540  81.5829 278.5338 15.08847511100463,6917.857,95.437,540.788,538.657,0.0
51871.0,STARLINK-3567,PAYLOAD,2023-12-18 10:40:37,15.08853081,0.0001663,53.218,55.4328,74.4653,285.6523,0.00015555,2.189e-05,0.0,0 STARLINK-3567,1 51871U 22022V   23352.44487576  .00002189  00000-0  15555-3 0  9994,2 51871  53.2180  55.4328 0001663  74.4653 285.6523 15.08853081100602,6917.84,95.437,540.856,538.555,0.0
51871.0,STARLINK-3567,PAYLOAD,2023-12-19 10:31:25,15.08840239,0.000134,53.2176,50.9702,92.6783,267.4363,7.4654e-05,9e-06,0.0,0 STARLINK-3567,1 51871U 22022V   23353.43848519  .00000900  00000-0  74654-4 0  9997,2 51871  53.2176  50.9702 0001340  92.6783 267.4363 15.08840239100680,6917.88,95.438,540.672,538.818,0.0
51871.0,STARLINK-3567,PAYLOAD,2023-12-20 10:22:10,15.08874173,0.0002009,53.2187,46.5204,69.4678,290.6529,0.00023519,3.46e-05,0.0,0 STARLINK-3567,1 51871U 22022V   23354.43206227  .00003460  00000-0  23519-3 0  9999,2 51871  53.2187  46.5204 0002009  69.4678 290.6529 15.08874173100831,6917.776,95.435,541.031,538.251,0.0
51871.0,STARLINK-3567,PAYLOAD,2023-12-21 08:37:36,15.08834609,0.0001778,53.2191,42.3505,125.0259,235.09,6.197e-05,6.98e-06,0.0,0 STARLINK-3567,1 51871U 22022V   23355.35944606  .00000698  00000-0  61970-4 0  9995,2 51871  53.2191  42.3505 0001778 125.0259 235.0900 15.08834609100971,6917.897,95.438,540.992,538.532,0.0
51871.0,STARLINK-3567,PAYLOAD,2023-12-22 08:28:23,15.0884511,0.0001569,53.2177,37.8815,91.8832,268.234,-0.00023297,-3.994e-05,0.0,0 STARLINK-3567,1 51871U 22022V   23356.35305301 -.00003994  00000-0 -23297-3 0  9992,2 51871  53.2177  37.8815 0001569  91.8832 268.2340 15.08845110101193,6917.865,95.437,540.815,538.644,0.0
51871.0,STARLINK-3567,PAYLOAD,2023-12-23 03:33:01,15.08838941,0.0001456,53.2181,34.3149,104.738,255.3774,0.00010648,1.407e-05,0.0,0 STARLINK-3567,1 51871U 22022V   23357.14793102  .00001407  00000-0  10648-3 0  9991,2 51871  53.2181  34.3149 0001456 104.7380 255.3774 15.08838941101245,6917.884,95.438,540.756,538.741,0.0
51871.0,STARLINK-3567,PAYLOAD,2023-12-23 09:54:32,15.08853504,0.0001427,53.2174,33.1235,75.9899,284.1251,0.00028053,4.181e-05,0.0,0 STARLINK-3567,1 51871U 22022V   23357.41287877  .00004181  00000-0  28053-3 0  9999,2 51871  53.2174  33.1235 0001427  75.9899 284.1251 15.08853504101288,6917.839,95.437,540.691,538.717,0.0
51871.0,STARLINK-3567,PAYLOAD,2023-12-24 09:45:21,15.08835831,0.0001365,53.2187,28.6649,86.3353,273.7795,5.1826e-05,5.37e-06,0.0,0 STARLINK-3567,1 51871U 22022V   23358.40649883  .00000537  00000-0  51826-4 0  9994,2 51871  53.2187  28.6649 0001365  86.3353 273.7795 15.08835831101439,6917.893,95.438,540.702,538.814,0.0
51871.0,STARLINK-3567,PAYLOAD,2023-12-25 11:11:30,15.08856515,0.0001296,53.2171,23.9076,86.6428,273.4713,0.00014757,2.062e-05,0.0,0 STARLINK-3567,1 51871U 22022V   23359.46632574  .00002062  00000-0  14757-3 0  9996,2 51871  53.2171  23.9076 0001296  86.6428 273.4713 15.08856515101599,6917.83,95.437,540.591,538.798,0.0
51871.0,STARLINK-3567,PAYLOAD,2023-12-25 22:19:13,15.08829077,0.000144,53.2168,21.8291,52.3505,307.7618,5.7756e-05,6.31e-06,0.0,0 STARLINK-3567,1 51871U 22022V   23359.93002308  .00000631  00000-0  57756-4 0  9991,2 51871  53.2168  21.8291 0001440  52.3505 307.7618 15.08829077101732,6917.914,95.438,540.775,538.783,0.0
51871.0,STARLINK-3567,PAYLOAD,2023-12-26 01:30:00,15.08831683,0.0001476,53.2171,21.2363,60.2181,299.8958,9.5417e-05,1.231e-05,0.0,0 STARLINK-3567,1 51871U 22022V   23360.06250316  .00001231  00000-0  95417-4 0  9994,2 51871  53.2171  21.2363 0001476  60.2181 299.8958 15.08831683101685,6917.906,95.438,540.792,538.75,0.0
51871.0,STARLINK-3567,PAYLOAD,2023-12-26 07:51:32,15.08832802,0.0001475,53.2173,20.0461,72.8483,287.2671,0.00010316,1.354e-05,0.0,0 STARLINK-3567,1 51871U 22022V   23360.32746431  .00001354  00000-0  10316-3 0  9991,2 51871  53.2173  20.0461 0001475  72.8483 287.2671 15.08832802101795,6917.902,95.438,540.788,538.747,0.0
51871.0,STARLINK-3567,PAYLOAD,2023-12-27 10:53:05,15.08854007,0.000143,53.217,14.9873,90.0078,270.1078,0.00052039,8.007e-05,0.0,0 STARLINK-3567,1 51871U 22022V   23361.45353767  .00008007  00000-0  52039-3 0  9992,2 51871  53.2170  14.9873 0001430  90.0078 270.1078 15.08854007101898,6917.838,95.437,540.692,538.713,0.0
51871.0,STARLINK-3567,PAYLOAD,2023-12-28 04:22:20,15.08842072,0.0001871,53.2176,11.7124,111.6817,248.4375,0.0002103,3.061e-05,0.0,0 STARLINK-3567,1 51871U 22022V   23362.18218023  .00003061  00000-0  21030-3 0  9990,2 51871  53.2176  11.7124 0001871 111.6817 248.4375 15.08842072102009,6917.874,95.437,541.033,538.445,0.0
51871.0,STARLINK-3567,PAYLOAD,2023-12-28 05:57:43,15.08843884,0.0001722,53.2176,11.4132,114.0281,246.0892,0.00016522,2.343e-05,0.0,0 STARLINK-3567,1 51871U 22022V   23362.24841868  .00002343  00000-0  16522-3 0  9998,2 51871  53.2176  11.4132 0001722 114.0281 246.0892 15.08843884102080,6917.869,95.437,540.925,538.542,0.0
51871.0,STARLINK-3567,PAYLOAD,2023-12-29 04:13:07,15.08838373,0.0001655,53.2178,7.2505,95.5463,264.5718,2.3209e-06,-2.51e-06,0.0,0 STARLINK-3567,1 51871U 22022V   23363.17578240 -.00000251  00000-0  23209-5 0  9991,2 51871  53.2178   7.2505 0001655  95.5463 264.5718 15.08838373102156,6917.885,95.438,540.895,538.605,0.0
51871.0,STARLINK-3567,PAYLOAD,2023-12-29 07:23:54,15.08839406,0.0001577,53.2186,6.6564,87.5533,272.564,2.0782e-05,4.3e-07,0.0,0 STARLINK-3567,1 51871U 22022V   23363.30826455  .00000043  00000-0  20782-4 0  9990,2 51871  53.2186   6.6564 0001577  87.5533 272.5640 15.08839406102246,6917.882,95.438,540.838,538.656,0.0
51871.0,STARLINK-3567,PAYLOAD,2023-12-30 08:50:03,15.08848207,0.0001532,53.2188,1.9044,88.7552,271.3615,0.00019808,2.867e-05,0.0,0 STARLINK-3567,1 51871U 22022V   23364.36809624  .00002867  00000-0  19808-3 0  9998,2 51871  53.2188   1.9044 0001532  88.7552 271.3615 15.08848207102332,6917.855,95.437,540.78,538.66,0.0
51871.0,STARLINK-3567,PAYLOAD,2023-12-31 03:54:42,15.08833446,0.0001919,53.2201,358.3387,75.6373,284.4833,8.0063e-05,9.86e-06,0.0,0 STARLINK-3567,1 51871U 22022V   23365.16299175  .00000986  00000-0  80063-4 0  9993,2 51871  53.2201 358.3387 0001919  75.6373 284.4833 15.08833446102451,6917.9,95.438,541.093,538.438,0.0
51871.0,STARLINK-3567,PAYLOAD,2023-12-31 08:40:51,15.08839515,0.0001595,53.2189,357.4431,92.8547,267.2628,0.00012408,1.687e-05,0.0,0 STARLINK-3567,1 51871U 22022V   23365.36170701  .00001687  00000-0  12408-3 0  9994,2 51871  53.2189 357.4431 0001595  92.8547 267.2628 15.08839515102487,6917.882,95.438,540.85,538.643,0.0
51871.0,STARLINK-3567,PAYLOAD,2024-01-01 03:45:28,15.08848026,0.0001654,53.2189,353.8761,97.9668,262.1511,0.00011069,1.474e-05,0.0,0 STARLINK-3567,1 51871U 22022V   24001.15657864  .00001474  00000-0  11069-3 0  9995,2 51871  53.2189 353.8761 0001654  97.9668 262.1511 15.08848026102605,6917.856,95.437,540.865,538.577,0.0
51871.0,STARLINK-3567,PAYLOAD,2024-01-01 08:31:37,15.0885317,0.0001816,53.2203,352.9809,108.1706,251.9484,0.00022962,3.369e-05,0.0,0 STARLINK-3567,1 51871U 22022V   24001.35529368  .00003369  00000-0  22962-3 0  9993,2 51871  53.2203 352.9809 0001816 108.1706 251.9484 15.08853170102705,6917.84,95.437,540.961,538.449,0.0
51871.0,STARLINK-3567,PAYLOAD,2024-01-02 03:36:15,15.08840689,0.0001488,53.2181,349.4124,111.6105,248.5045,6.9868e-05,8.24e-06,0.0,0 STARLINK-3567,1 51871U 22022V   24002.15018330  .00000824  00000-0  69868-4 0  9994,2 51871  53.2181 349.4124 0001488 111.6105 248.5045 15.08840689102759,6917.878,95.438,540.773,538.714,0.0
51871.0,STARLINK-3567,PAYLOAD,2024-01-02 06:47:02,15.08837223,0.0001302,53.2174,348.8209,98.8165,261.2975,-4.8112e-06,-3.64e-06,0.0,0 STARLINK-3567,1 51871U 22022V   24002.28266323 -.00000364  00000-0 -48112-5 0  9996,2 51871  53.2174 348.8209 0001302  98.8165 261.2975 15.08837223102849,6917.889,95.438,540.655,538.853,0.0
